ONEWEB-0612             
1 54675U 22166AK  23348.26847122  .00000097  00000+0  20315-3 0  9995
2 54675  87.9248  66.2990 0001746  89.6171 270.5163 13.21826452 50439
ONEWEB-0615             
1 54676U 22166AL  23348.24953924  .00000148  00000+0  32664-3 0  9999
2 54676  87.9261  66.3231 0001491  96.7384 263.3919 13.21825984 50445
ONEWEB-0655             
1 54677U 22166AM  23348.29844197  .00000074  00000+0  14775-3 0  9997
2 54677  87.9256  66.3157 0001448  91.9911 268.1389 13.21825724 50448
ONEWEB-0659             
1 54678U 22166AN  23348.24008665  .00000131  00000+0  28501-3 0  9991
2 54678  87.9229  66.3404 0001992 108.5626 251.5725 13.21826506 50524
ONEWEB-0685             
1 54679U 22166AP  23348.24165480  .00000119  00000+0  25644-3 0  9992
2 54679  87.9259  66.3227 0001407  75.8138 284.3152 13.21824341 50417
ONEWEB-0712             
1 54680U 22166AQ  23348.55580022  .00000035  00000+0  58496-4 0  9990
2 54680  87.9069  51.0284 0001749 116.8988 243.2322 13.16589365 51579
ONEWEB-0714             
1 54681U 22166AR  23348.24795762  .00000065  00000+0  12521-3 0  9997
2 54681  87.9249  66.3072 0001504  90.7327 269.3979 13.21826873 50536
ONEWEB-0532             
1 55140U 23004A   23348.54598616  .00000054  00000+0  10566-3 0  9997
2 55140  87.9205 187.8964 0002311  78.1455 281.9936 13.17645966 47005
